{
  "type": "FeatureCollection",
  "features": [
    {
      "type": "Feature",
      "properties": {
        "norad_id": 29486,
        "name": "GPS BIIRM-2 (PRN 31)",
        "group": "gps-ops",
        "lat": -53.64644005853193,
        "lon": 84.06247770631353,
        "alt_km": 20381.398953290423,
        "timestamp": "2025-12-18T21:31:51.259924+00:00",
        "meta_object_name": "GPS BIIRM-2 (PRN 31)",
        "meta_object_id": "2006-042A",
        "meta_epoch": "2025-12-16T18:24:54.505728",
        "meta_mean_motion": 2.00554045,
        "meta_eccentricity": 0.01073341,
        "meta_inclination": 54.6946,
        "meta_ra_of_asc_node": 158.5809,
        "meta_arg_of_pericenter": 52.0567,
        "meta_mean_anomaly": 130.2096,
        "meta_ephemeris_type": 0,
        "meta_classification_type": "U",
        "meta_norad_cat_id": 29486,
        "meta_element_set_no": 999,
        "meta_rev_at_epoch": 14073,
        "meta_bstar": 0,
        "meta_mean_motion_dot": 8.7e-07,
        "meta_mean_motion_ddot": 0,
        "tle_line1": "1 29486U 06042A   25350.76729752  .00000087  00000+0  00000+0 0  9994",
        "tle_line2": "2 29486  54.6946 158.5809 0107334  52.0567 130.2096  2.00554045140735"
      },
      "geometry": {
        "type": "Point",
        "coordinates": [
          84.06247770631353,
          -53.64644005853193
        ]
      }
    },
    {
      "type": "Feature",
      "properties": {
        "norad_id": 29601,
        "name": "GPS BIIRM-3 (PRN 12)",
        "group": "gps-ops",
        "lat": -18.583139609996994,
        "lon": -152.46805380327595,
        "alt_km": 20262.70668898162,
        "timestamp": "2025-12-18T21:31:51.259935+00:00",
        "meta_object_name": "GPS BIIRM-3 (PRN 12)",
        "meta_object_id": "2006-052A",
        "meta_epoch": "2025-12-17T22:21:49.009536",
        "meta_mean_motion": 2.00574024,
        "meta_eccentricity": 0.00876985,
        "meta_inclination": 54.9696,
        "meta_ra_of_asc_node": 221.1922,
        "meta_arg_of_pericenter": 87.4131,
        "meta_mean_anomaly": 273.6858,
        "meta_ephemeris_type": 0,
        "meta_classification_type": "U",
        "meta_norad_cat_id": 29601,
        "meta_element_set_no": 999,
        "meta_rev_at_epoch": 13977,
        "meta_bstar": 0,
        "meta_mean_motion_dot": 7.5e-07,
        "meta_mean_motion_ddot": 0,
        "tle_line1": "1 29601U 06052A   25351.93181724  .00000075  00000+0  00000+0 0  9992",
        "tle_line2": "2 29601  54.9696 221.1922 0087698  87.4131 273.6858  2.00574024139770"
      },
      "geometry": {
        "type": "Point",
        "coordinates": [
          -152.46805380327595,
          -18.583139609996994
        ]
      }
    },
    {
      "type": "Feature",
      "properties": {
        "norad_id": 32260,
        "name": "GPS BIIRM-4 (PRN 15)",
        "group": "gps-ops",
        "lat": 45.0360935073607,
        "lon": -139.20934689166444,
        "alt_km": 19812.38544038529,
        "timestamp": "2025-12-18T21:31:51.259948+00:00",
        "meta_object_name": "GPS BIIRM-4 (PRN 15)",
        "meta_object_id": "2007-047A",
        "meta_epoch": "2025-12-16T05:50:40.680960",
        "meta_mean_motion": 2.00564415,
        "meta_eccentricity": 0.01640743,
        "meta_inclination": 53.9576,
        "meta_ra_of_asc_node": 87.6137,
        "meta_arg_of_pericenter": 85.2864,
        "meta_mean_anomaly": 276.5744,
        "meta_ephemeris_type": 0,
        "meta_classification_type": "U",
        "meta_norad_cat_id": 32260,
        "meta_element_set_no": 999,
        "meta_rev_at_epoch": 13314,
        "meta_bstar": 0,
        "meta_mean_motion_dot": -5.5e-07,
        "meta_mean_motion_ddot": 0,
        "tle_line1": "1 32260U 07047A   25350.24352640 -.00000055  00000+0  00000+0 0  9991",
        "tle_line2": "2 32260  53.9576  87.6137 0164074  85.2864 276.5744  2.00564415133141"
      },
      "geometry": {
        "type": "Point",
        "coordinates": [
          -139.20934689166444,
          45.0360935073607
        ]
      }
    },
    {
      "type": "Feature",
      "properties": {
        "norad_id": 32384,
        "name": "GPS BIIRM-5 (PRN 29)",
        "group": "gps-ops",
        "lat": -49.47688549611826,
        "lon": 155.78448499343077,
        "alt_km": 20179.509566026005,
        "timestamp": "2025-12-18T21:31:51.259959+00:00",
        "meta_object_name": "GPS BIIRM-5 (PRN 29)",
        "meta_object_id": "2007-062A",
        "meta_epoch": "2025-12-18T04:16:41.212992",
        "meta_mean_motion": 2.00577654,
        "meta_eccentricity": 0.00322562,
        "meta_inclination": 55.1774,
        "meta_ra_of_asc_node": 281.4278,
        "meta_arg_of_pericenter": 162.2486,
        "meta_mean_anomaly": 286.0474,
        "meta_ephemeris_type": 0,
        "meta_classification_type": "U",
        "meta_norad_cat_id": 32384,
        "meta_element_set_no": 999,
        "meta_rev_at_epoch": 13188,
        "meta_bstar": 0,
        "meta_mean_motion_dot": -4.7e-07,
        "meta_mean_motion_ddot": 0,
        "tle_line1": "1 32384U 07062A   25352.17825478 -.00000047  00000+0  00000+0 0  9994",
        "tle_line2": "2 32384  55.1774 281.4278 0032256 162.2486 286.0474  2.00577654131888"
      },
      "geometry": {
        "type": "Point",
        "coordinates": [
          155.78448499343077,
          -49.47688549611826
        ]
      }
    },
    {
      "type": "Feature",
      "properties": {
        "norad_id": 32711,
        "name": "GPS BIIRM-6 (PRN 07)",
        "group": "gps-ops",
        "lat": 8.663127697753417,
        "lon": -29.134080598812744,
        "alt_km": 20038.52941767508,
        "timestamp": "2025-12-18T21:31:51.259971+00:00",
        "meta_object_name": "GPS BIIRM-6 (PRN 07)",
        "meta_object_id": "2008-012A",
        "meta_epoch": "2025-12-17T15:49:41.763360",
        "meta_mean_motion": 2.00565887,
        "meta_eccentricity": 0.02026439,
        "meta_inclination": 54.4776,
        "meta_ra_of_asc_node": 157.1765,
        "meta_arg_of_pericenter": 245.0018,
        "meta_mean_anomaly": 112.8836,
        "meta_ephemeris_type": 0,
        "meta_classification_type": "U",
        "meta_norad_cat_id": 32711,
        "meta_element_set_no": 999,
        "meta_rev_at_epoch": 13011,
        "meta_bstar": 0,
        "meta_mean_motion_dot": 7.7e-07,
        "meta_mean_motion_ddot": 0,
        "tle_line1": "1 32711U 08012A   25351.65951115  .00000077  00000+0  00000+0 0  9996",
        "tle_line2": "2 32711  54.4776 157.1765 0202643 245.0018 112.8836  2.00565887130114"
      },
      "geometry": {
        "type": "Point",
        "coordinates": [
          -29.134080598812744,
          8.663127697753417
        ]
      }
    },
    {
      "type": "Feature",
      "properties": {
        "norad_id": 35752,
        "name": "GPS BIIRM-8 (PRN 05)",
        "group": "gps-ops",
        "lat": -9.936029437303214,
        "lon": -138.67805871036882,
        "alt_km": 20230.57568204301,
        "timestamp": "2025-12-18T21:31:51.259982+00:00",
        "meta_object_name": "GPS BIIRM-8 (PRN 05)",
        "meta_object_id": "2009-043A",
        "meta_epoch": "2025-12-18T04:21:14.473728",
        "meta_mean_motion": 2.00565462,
        "meta_eccentricity": 0.00516833,
        "meta_inclination": 56.0947,
        "meta_ra_of_asc_node": 34.5684,
        "meta_arg_of_pericenter": 81.8123,
        "meta_mean_anomaly": 312.8651,
        "meta_ephemeris_type": 0,
        "meta_classification_type": "U",
        "meta_norad_cat_id": 35752,
        "meta_element_set_no": 999,
        "meta_rev_at_epoch": 11973,
        "meta_bstar": 0,
        "meta_mean_motion_dot": -7.2e-07,
        "meta_mean_motion_ddot": 0,
        "tle_line1": "1 35752U 09043A   25352.18141752 -.00000072  00000+0  00000+0 0  9992",
        "tle_line2": "2 35752  56.0947  34.5684 0051683  81.8123 312.8651  2.00565462119738"
      },
      "geometry": {
        "type": "Point",
        "coordinates": [
          -138.67805871036882,
          -9.936029437303214
        ]
      }
    },
    {
      "type": "Feature",
      "properties": {
        "norad_id": 36585,
        "name": "GPS BIIF-1  (PRN 25)",
        "group": "gps-ops",
        "lat": -39.624654343530395,
        "lon": 179.31190873944746,
        "alt_km": 20336.15098377601,
        "timestamp": "2025-12-18T21:31:51.259993+00:00",
        "meta_object_name": "GPS BIIF-1  (PRN 25)",
        "meta_object_id": "2010-022A",
        "meta_epoch": "2025-12-18T05:21:58.347936",
        "meta_mean_motion": 2.00553561,
        "meta_eccentricity": 0.01263418,
        "meta_inclination": 54.2992,
        "meta_ra_of_asc_node": 215.8527,
        "meta_arg_of_pericenter": 65.143,
        "meta_mean_anomaly": 118.1807,
        "meta_ephemeris_type": 0,
        "meta_classification_type": "U",
        "meta_norad_cat_id": 36585,
        "meta_element_set_no": 999,
        "meta_rev_at_epoch": 11396,
        "meta_bstar": 0,
        "meta_mean_motion_dot": 8.3e-07,
        "meta_mean_motion_ddot": 0,
        "tle_line1": "1 36585U 10022A   25352.22359199  .00000083  00000+0  00000+0 0  9998",
        "tle_line2": "2 36585  54.2992 215.8527 0126341  65.1430 118.1807  2.00553561113969"
      },
      "geometry": {
        "type": "Point",
        "coordinates": [
          179.31190873944746,
          -39.624654343530395
        ]
      }
    }
  ]
}